NORAD_CAT_ID,OBJECT_NAME,OBJECT_TYPE,EPOCH,MEAN_MOTION,ECCENTRICITY,INCLINATION,RA_OF_ASC_NODE,ARG_OF_PERICENTER,MEAN_ANOMALY,BSTAR,MEAN_MOTION_DOT,MEAN_MOTION_DDOT,TLE_LINE0,TLE_LINE1,TLE_LINE2,SEMIMAJOR_AXIS,PERIOD,APOGEE,PERIGEE,DECAYED
51783.0,STARLINK-3628,PAYLOAD,2023-01-15 05:58:23,15.08841285,0.0002360999999999,53.2151,99.1674,35.7531,324.3619,0.00013139,1.803e-05,0.0,0 STARLINK-3628,1 51783U 22017R   23015.24888431  .00001803  00000-0  13139-3 0  9997,2 51783  53.2151  99.1674 0002361  35.7531 324.3619 15.08841285 50538,6917.876,95.437,541.375,538.1080000000001,0.0
51783.0,STARLINK-3628,PAYLOAD,2023-01-15 12:19:55,15.08855172,0.0002000999999999,53.2154,97.978,39.5626,320.5512,0.00040418,6.153e-05,0.0,0 STARLINK-3628,1 51783U 22017R   23015.51383941  .00006153  00000-0  40418-3 0  9996,2 51783  53.2154  97.9780 0002001  39.5626 320.5512 15.08855172 48934,6917.834,95.437,541.0830000000001,538.315,0.0
51783.0,STARLINK-3628,PAYLOAD,2023-01-15 21:52:14,15.08852135,0.0001931,53.2166,96.1929,44.6791,315.4356,0.00031338,4.704e-05,0.0,0 STARLINK-3628,1 51783U 22017R   23015.91127757  .00004704  00000-0  31338-3 0  9992,2 51783  53.2166  96.1929 0001931  44.6791 315.4356 15.08852135 48995,6917.843000000001,95.437,541.044,538.372,0.0
51783.0,STARLINK-3628,PAYLOAD,2023-01-16 12:10:42,15.08859276,0.0001803,53.2162,93.5208,53.9997,306.1162,0.0002952,4.416e-05,0.0,0 STARLINK-3628,1 51783U 22017R   23016.50743131  .00004416  00000-0  29520-3 0  9998,2 51783  53.2162  93.5208 0001803  53.9997 306.1162 15.08859276 49087,6917.821,95.436,540.934,538.439,0.0
51783.0,STARLINK-3628,PAYLOAD,2023-01-16 21:43:01,15.08834357,0.0001809,53.2149,91.7336,54.8722,305.244,-0.0001401,-2.517e-05,0.0,0 STARLINK-3628,1 51783U 22017R   23016.90488012 -.00002517  00000-0 -14010-3 0  9996,2 51783  53.2149  91.7336 0001809  54.8722 305.2440 15.08834357 50787,6917.898,95.438,541.014,538.511,0.0
51783.0,STARLINK-3628,PAYLOAD,2023-01-17 05:39:58,15.08803388,0.0001701,53.2156,90.2464,64.8525,295.2643,-0.00063595,-0.00010385,0.0,0 STARLINK-3628,1 51783U 22017R   23017.23609581 -.00010385  00000-0 -63595-3 0  9993,2 51783  53.2156  90.2464 0001701  64.8525 295.2643 15.08803388 50833,6917.991999999999,95.44,541.034,538.681,0.0
51783.0,STARLINK-3628,PAYLOAD,2023-01-17 13:36:54,15.08812876,0.0001486999999999,53.2153,88.7583,69.4623,290.6528,-0.00032897,-5.516e-05,0.0,0 STARLINK-3628,1 51783U 22017R   23017.56729716 -.00005516  00000-0 -32897-3 0  9993,2 51783  53.2153  88.7583 0001487  69.4623 290.6528 15.08812876 50883,6917.963000000001,95.439,540.857,538.8,0.0
51783.0,STARLINK-3628,PAYLOAD,2023-01-18 00:44:36,15.08820486,0.0002190999999999,53.2142,86.6795,73.7959,286.3274,-6.4175e-05,-1.309e-05,0.0,0 STARLINK-3628,1 51783U 22017R   23018.03098141 -.00001309  00000-0 -64175-4 0  9998,2 51783  53.2142  86.6795 0002191  73.7959 286.3274 15.08820486 50950,6917.94,95.439,541.321,538.289,0.0
51783.0,STARLINK-3628,PAYLOAD,2023-01-18 08:41:32,15.08871452,0.000149,53.2156,85.1911,74.4559,285.6598,0.002887,0.00045998,0.0,0 STARLINK-3628,1 51783U 22017R   23018.36218078  .00045998  00000-0  28870-2 0  9997,2 51783  53.2156  85.1911 0001490  74.4559 285.6598 15.08871452 51001,6917.784000000001,95.436,540.68,538.619,0.0
51783.0,STARLINK-3628,PAYLOAD,2023-01-18 13:27:41,15.08888006,0.0001521999999999,53.2156,84.2989,74.273,285.843,0.0029458,0.00046969,0.0,0 STARLINK-3628,1 51783U 22017R   23018.56089582  .00046969  00000-0  29458-2 0  9997,2 51783  53.2156  84.2989 0001522  74.2730 285.8430 15.08888006 49390,6917.734,95.435,540.6519999999999,538.5459999999999,0.0
51783.0,STARLINK-3628,PAYLOAD,2023-01-18 21:24:36,15.08872499,9.88e-05,53.2158,82.8126,88.5241,271.5864,0.0013111,0.00020658,0.0,0 STARLINK-3628,1 51783U 22017R   23018.89209100  .00020658  00000-0  13111-2 0  9999,2 51783  53.2158  82.8126 0000988  88.5241 271.5864 15.08872499 51080,6917.781,95.435,540.33,538.9630000000001,0.0
51783.0,STARLINK-3628,PAYLOAD,2023-01-19 02:10:46,15.08848094,0.0001341999999999,53.2158,81.9206,92.4816,267.633,0.00030728,4.607e-05,0.0,0 STARLINK-3628,1 51783U 22017R   23019.09081498  .00004607  00000-0  30728-3 0  9990,2 51783  53.2158  81.9206 0001342  92.4816 267.6330 15.08848094 51118,6917.856,95.437,540.649,538.7919999999999,0.0
51783.0,STARLINK-3628,PAYLOAD,2023-01-19 06:56:55,15.08862811,0.0001314,53.2156,81.028,84.2,275.9142,0.00066657,0.00010343,0.0,0 STARLINK-3628,1 51783U 22017R   23019.28953151  .00010343  00000-0  66657-3 0  9999,2 51783  53.2156  81.0280 0001314  84.2000 275.9142 15.08862811 51141,6917.811,95.436,540.585,538.7669999999999,0.0
51783.0,STARLINK-3628,PAYLOAD,2023-01-19 10:07:41,15.08865556,0.0001264,53.2156,80.4331,87.0429,273.0708,0.0018730999999999,0.00029669,0.0,0 STARLINK-3628,1 51783U 22017R   23019.42201073  .00029669  00000-0  18731-2 0  9994,2 51783  53.2156  80.4331 0001264  87.0429 273.0708 15.08865556 49526,6917.802,95.436,540.5419999999999,538.793,0.0
51783.0,STARLINK-3628,PAYLOAD,2023-01-19 11:43:04,15.08868208,0.000125,53.2156,80.1358,85.8843,274.2292,0.0022234,0.00035302,0.0,0 STARLINK-3628,1 51783U 22017R   23019.48825024  .00035302  00000-0  22234-2 0  9992,2 51783  53.2156  80.1358 0001250  85.8843 274.2292 15.08868208 51175,6917.794,95.436,540.524,538.794,0.0
51783.0,STARLINK-3628,PAYLOAD,2023-01-20 03:36:56,15.08852149,0.0001286999999999,53.2156,77.16199999999999,108.7723,251.3409,0.0011502,0.00018071,0.0,0 STARLINK-3628,1 51783U 22017R   23020.15064899  .00018071  00000-0  11502-2 0  9993,2 51783  53.2156  77.1620 0001287 108.7723 251.3409 15.08852149 51279,6917.843000000001,95.437,540.599,538.818,0.0
51783.0,STARLINK-3628,PAYLOAD,2023-01-20 09:58:28,15.08859264,0.0001319,53.2156,75.9725,104.6727,255.4411,0.0019902,0.00031545,0.0,0 STARLINK-3628,1 51783U 22017R   23020.41560872  .00031545  00000-0  19902-2 0  9997,2 51783  53.2156  75.9725 0001319 104.6727 255.4411 15.08859264 49670,6917.821999999999,95.436,540.599,538.774,0.0
51783.0,STARLINK-3628,PAYLOAD,2023-01-20 21:06:10,15.08852829,0.0002036,53.2164,73.8916,81.9436,278.1788,0.0014568,0.00022981,0.0,0 STARLINK-3628,1 51783U 22017R   23020.87929330  .00022981  00000-0  14568-2 0  9992,2 51783  53.2164  73.8916 0002036  81.9436 278.1788 15.08852829 51389,6917.840999999999,95.437,541.115,538.298,0.0
51783.0,STARLINK-3628,PAYLOAD,2023-01-21 06:38:29,15.08848584,0.0001703,53.2171,72.1056,97.2029,262.9157,0.0011253,0.00017671,0.0,0 STARLINK-3628,1 51783U 22017R   23021.27673182  .00017671  00000-0  11253-2 0  9996,2 51783  53.2171  72.1056 0001703  97.2029 262.9157 15.08848584 51443,6917.854,95.437,540.8969999999999,538.5409999999999,0.0
51783.0,STARLINK-3628,PAYLOAD,2023-01-22 12:50:48,15.08869176,0.000124,53.2165,66.4566,87.5407,272.5727,0.0015573,0.00024603,0.0,0 STARLINK-3628,1 51783U 22017R   23022.53528793  .00024603  00000-0  15573-2 0  9995,2 51783  53.2165  66.4566 0001240  87.5407 272.5727 15.08869176 51637,6917.791,95.436,540.514,538.798,0.0
51783.0,STARLINK-3628,PAYLOAD,2023-01-23 03:09:17,15.08831144,0.0001281999999999,53.216,63.7799,104.7525,255.3609,-0.0001395,-2.507e-05,0.0,0 STARLINK-3628,1 51783U 22017R   23023.13145429 -.00002507  00000-0 -13950-3 0  9992,2 51783  53.2160  63.7799 0001282 104.7525 255.3609 15.08831144 51721,6917.906999999999,95.438,540.659,538.886,0.0
51783.0,STARLINK-3628,PAYLOAD,2023-01-23 09:30:50,15.08841149,0.000138,53.2159,62.5912,106.0228,254.0916,0.00027723,4.127e-05,0.0,0 STARLINK-3628,1 51783U 22017R   23023.39641322  .00004127  00000-0  27723-3 0  9994,2 51783  53.2159  62.5912 0001380 106.0228 254.0916 15.08841149 51764,6917.877,95.437,540.697,538.7869999999999,0.0
51783.0,STARLINK-3628,PAYLOAD,2023-01-24 06:10:51,15.08836134,0.0001226,53.2158,58.7242,99.4476,260.6655,-1.6698e-05,-5.54e-06,0.0,0 STARLINK-3628,1 51783U 22017R   23024.25753736 -.00000554  00000-0 -16698-4 0  9995,2 51783  53.2158  58.7242 0001226  99.4476 260.6655 15.08836134 51890,6917.892,95.438,540.605,538.909,0.0
51783.0,STARLINK-3628,PAYLOAD,2023-01-25 09:12:25,15.08835809,0.0001193999999999,53.2165,53.6701,91.2757,268.8372,0.00013121,1.801e-05,0.0,0 STARLINK-3628,1 51783U 22017R   23025.38362371  .00001801  00000-0  13121-3 0  9992,2 51783  53.2165  53.6701 0001194  91.2757 268.8372 15.08835809 52062,6917.893,95.438,540.5840000000001,538.932,0.0
51783.0,STARLINK-3628,PAYLOAD,2023-01-25 18:44:43,15.08842623,0.0001247,53.2163,51.8857,87.7114,272.4021,0.00022934,3.364e-05,0.0,0 STARLINK-3628,1 51783U 22017R   23025.78106199  .00003364  00000-0  22934-3 0  9998,2 51783  53.2163  51.8857 0001247  87.7114 272.4021 15.08842623 50486,6917.871999999999,95.437,540.6,538.875,0.0
51783.0,STARLINK-3628,PAYLOAD,2023-01-26 09:03:11,15.08852316,0.0001063,53.2157,49.2088,94.7882,265.3232,0.00044548,6.811e-05,0.0,0 STARLINK-3628,1 51783U 22017R   23026.37721873  .00006811  00000-0  44548-3 0  9991,2 51783  53.2157  49.2088 0001063  94.7882 265.3232 15.08852316 50577,6917.843000000001,95.437,540.443,538.972,0.0
51783.0,STARLINK-3628,PAYLOAD,2023-01-26 20:10:53,15.08844536,0.0001165999999999,53.2156,47.1283,79.2724,280.8399,0.00019728,2.854e-05,0.0,0 STARLINK-3628,1 51783U 22017R   23026.84090055  .00002854  00000-0  19728-3 0  9999,2 51783  53.2156  47.1283 0001166  79.2724 280.8399 15.08844536 52288,6917.866999999999,95.437,540.538,538.925,0.0
51783.0,STARLINK-3628,PAYLOAD,2023-01-27 10:29:21,15.08848387,0.0001047,53.2164,44.4488,120.0079,240.1017,0.00015863,2.238e-05,0.0,0 STARLINK-3628,1 51783U 22017R   23027.43705578  .00002238  00000-0  15863-3 0  9990,2 51783  53.2164  44.4488 0001047 120.0079 240.1017 15.08848387 50732,6917.855,95.437,540.444,538.995,0.0
51783.0,STARLINK-3628,PAYLOAD,2023-01-28 05:33:59,15.08839176,0.0001171999999999,53.2165,40.881,105.8754,254.2367,5.615e-05,6.06e-06,0.0,0 STARLINK-3628,1 51783U 22017R   23028.23194228  .00000606  00000-0  56150-4 0  9995,2 51783  53.2165  40.8810 0001172 105.8754 254.2367 15.08839176 52497,6917.883000000001,95.438,540.559,538.937,0.0
